STARLINK-35086          
1 65699U 25212Z   26063.23303470  .00050499  00000+0  17047-2 0  9993
2 65699  53.1622  11.3358 0000911 125.1886 234.9200 15.30217615 26356
STARLINK-35101          
1 65700U 25212AA  26063.23925379  .00062074  00000+0  20894-2 0  9990
2 65700  53.1625  10.6614 0001029  87.4984 272.6135 15.30217642 26366
STARLINK-35046          
1 65701U 25212AB  26063.14556201  .00041127  00000+0  13929-2 0  9992
2 65701  53.1605  11.4977 0001305  70.8583 289.2559 15.30202485 26390
STARLINK-35075          
1 65702U 25212AC  26063.12550632  .00046781  00000+0  15796-2 0  9998
2 65702  53.1614  11.3712 0001058 109.6329 250.4787 15.30242309 26393
STARLINK-34839          
1 65703U 25212AD  26063.12234378  .00032989  00000+0  11206-2 0  9992
2 65703  53.1621  11.3488 0001107  76.5286 283.5838 15.30211550 26399
STARLINK-34086          
1 65734U 25216A   26063.13234723  .00037921  00000+0  12852-2 0  9994
2 65734  53.1620 358.6476 0001323  71.0774 289.0370 15.30218224 25710
STARLINK-35099          
1 65735U 25216B   26063.17971994  .00038512  00000+0  13047-2 0  9991
2 65735  53.1616 358.2253 0001109  72.9326 287.1796 15.30223524 25675
STARLINK-35167          
1 65736U 25216C   26063.13339890  .00032750  00000+0  11127-2 0  9996
2 65736  53.1612 358.6491 0001003  78.7150 281.3963 15.30209529 25695
STARLINK-35121          
1 65737U 25216D   26063.28936634  .00055377  00000+0  18684-2 0  9997
2 65737  53.1622 358.1981 0001854  78.3914 281.7295 15.30191189 25711
STARLINK-35108          
1 65738U 25216E   26063.21242944  .00045793  00000+0  15473-2 0  9999
2 65738  53.1626 358.4330 0000397 200.0354 160.0631 15.30230779 25756
STARLINK-35106          
1 65739U 25216F   26063.01542703  .00033657  00000+0  11420-2 0  9998
2 65739  53.1629 359.3283 0001312 118.0217 242.0917 15.30237704 25642
STARLINK-35130          
1 65740U 25216G   26063.19238158  .00042391  00000+0  14345-2 0  9999
2 65740  53.1608 358.3057 0001133  86.4914 273.6216 15.30217622 25753
STARLINK-35284          
1 65741U 25216H   26063.02282065  .00066432  00000+0  22353-2 0  9998
2 65741  53.1619 359.3825 0001263  58.7155 301.3969 15.30197374 25679
STARLINK-35316          
1 65742U 25216J   26063.13973364  .00042420  00000+0  14357-2 0  9996
2 65742  53.1623 358.6869 0001173  84.4731 275.6404 15.30210763 24619
STARLINK-35319          
1 65743U 25216K   26063.10701797  .00035593  00000+0  12071-2 0  9997
2 65743  53.1609 358.4810 0000967  95.3440 264.7672 15.30226728 25745
STARLINK-35173          
1 65744U 25216L   26063.25136004  .00034862  00000+0  11840-2 0  9998
2 65744  53.1611 357.9639 0001196  55.7277 304.3837 15.30189825 25767
