[{"OBJECT_NAME":"STARLINK-35086","OBJECT_ID":"2025-212Z","EPOCH":"2026-03-04T05:35:34.198080","MEAN_MOTION":15.30217615,"ECCENTRICITY":9.115e-5,"INCLINATION":53.1622,"RA_OF_ASC_NODE":11.3358,"ARG_OF_PERICENTER":125.1886,"MEAN_ANOMALY":234.92,"EPHEMERIS_TYPE":0,"CLASSIFICATION_TYPE":"U","NORAD_CAT_ID":65699,"ELEMENT_SET_NO":999,"REV_AT_EPOCH":2635,"BSTAR":0.0017046631,"MEAN_MOTION_DOT":0.00050499,"MEAN_MOTION_DDOT":0},{"OBJECT_NAME":"STARLINK-35101","OBJECT_ID":"2025-212AA","EPOCH":"2026-03-04T05:44:31.527456","MEAN_MOTION":15.30217642,"ECCENTRICITY":0.00010291,"INCLINATION":53.1625,"RA_OF_ASC_NODE":10.6614,"ARG_OF_PERICENTER":87.4984,"MEAN_ANOMALY":272.6135,"EPHEMERIS_TYPE":0,"CLASSIFICATION_TYPE":"U","NORAD_CAT_ID":65700,"ELEMENT_SET_NO":999,"REV_AT_EPOCH":2636,"BSTAR":0.0020893779,"MEAN_MOTION_DOT":0.00062074,"MEAN_MOTION_DDOT":0},{"OBJECT_NAME":"STARLINK-35046","OBJECT_ID":"2025-212AB","EPOCH":"2026-03-04T03:29:36.557664","MEAN_MOTION":15.30202485,"ECCENTRICITY":0.00013058,"INCLINATION":53.1605,"RA_OF_ASC_NODE":11.4977,"ARG_OF_PERICENTER":70.8583,"MEAN_ANOMALY":289.2559,"EPHEMERIS_TYPE":0,"CLASSIFICATION_TYPE":"U","NORAD_CAT_ID":65701,"ELEMENT_SET_NO":999,"REV_AT_EPOCH":2639,"BSTAR":0.0013929311,"MEAN_MOTION_DOT":0.00041127,"MEAN_MOTION_DDOT":0},{"OBJECT_NAME":"STARLINK-35075","OBJECT_ID":"2025-212AC","EPOCH":"2026-03-04T03:00:43.746048","MEAN_MOTION":15.30242309,"ECCENTRICITY":0.0001058,"INCLINATION":53.1614,"RA_OF_ASC_NODE":11.3712,"ARG_OF_PERICENTER":109.6329,"MEAN_ANOMALY":250.4787,"EPHEMERIS_TYPE":0,"CLASSIFICATION_TYPE":"U","NORAD_CAT_ID":65702,"ELEMENT_SET_NO":999,"REV_AT_EPOCH":2639,"BSTAR":0.0015796315,"MEAN_MOTION_DOT":0.00046781,"MEAN_MOTION_DDOT":0},{"OBJECT_NAME":"STARLINK-34839","OBJECT_ID":"2025-212AD","EPOCH":"2026-03-04T02:56:10.502592","MEAN_MOTION":15.3021155,"ECCENTRICITY":0.0001107,"INCLINATION":53.1621,"RA_OF_ASC_NODE":11.3488,"ARG_OF_PERICENTER":76.5286,"MEAN_ANOMALY":283.5838,"EPHEMERIS_TYPE":0,"CLASSIFICATION_TYPE":"U","NORAD_CAT_ID":65703,"ELEMENT_SET_NO":999,"REV_AT_EPOCH":2639,"BSTAR":0.0011205987,"MEAN_MOTION_DOT":0.00032989,"MEAN_MOTION_DDOT":0},{"OBJECT_NAME":"STARLINK-34086","OBJECT_ID":"2025-216A","EPOCH":"2026-03-04T03:10:34.800672","MEAN_MOTION":15.30218224,"ECCENTRICITY":0.00013237,"INCLINATION":53.162,"RA_OF_ASC_NODE":358.6476,"ARG_OF_PERICENTER":71.0774,"MEAN_ANOMALY":289.037,"EPHEMERIS_TYPE":0,"CLASSIFICATION_TYPE":"U","NORAD_CAT_ID":65734,"ELEMENT_SET_NO":999,"REV_AT_EPOCH":2571,"BSTAR":0.0012852075,"MEAN_MOTION_DOT":0.00037921,"MEAN_MOTION_DDOT":0},{"OBJECT_NAME":"STARLINK-35099","OBJECT_ID":"2025-216B","EPOCH":"2026-03-04T04:18:47.802816","MEAN_MOTION":15.30223524,"ECCENTRICITY":0.00011097,"INCLINATION":53.1616,"RA_OF_ASC_NODE":358.2253,"ARG_OF_PERICENTER":72.9326,"MEAN_ANOMALY":287.1796,"EPHEMERIS_TYPE":0,"CLASSIFICATION_TYPE":"U","NORAD_CAT_ID":65735,"ELEMENT_SET_NO":999,"REV_AT_EPOCH":2567,"BSTAR":0.0013047285,"MEAN_MOTION_DOT":0.00038512,"MEAN_MOTION_DDOT":0},{"OBJECT_NAME":"STARLINK-35167","OBJECT_ID":"2025-216C","EPOCH":"2026-03-04T03:12:05.664960","MEAN_MOTION":15.30209529,"ECCENTRICITY":0.00010038,"INCLINATION":53.1612,"RA_OF_ASC_NODE":358.6491,"ARG_OF_PERICENTER":78.715,"MEAN_ANOMALY":281.3963,"EPHEMERIS_TYPE":0,"CLASSIFICATION_TYPE":"U","NORAD_CAT_ID":65736,"ELEMENT_SET_NO":999,"REV_AT_EPOCH":2569,"BSTAR":0.0011126799,"MEAN_MOTION_DOT":0.0003275,"MEAN_MOTION_DDOT":0},{"OBJECT_NAME":"STARLINK-35121","OBJECT_ID":"2025-216D","EPOCH":"2026-03-04T06:56:41.251776","MEAN_MOTION":15.30191189,"ECCENTRICITY":0.00018546,"INCLINATION":53.1622,"RA_OF_ASC_NODE":358.1981,"ARG_OF_PERICENTER":78.3914,"MEAN_ANOMALY":281.7295,"EPHEMERIS_TYPE":0,"CLASSIFICATION_TYPE":"U","NORAD_CAT_ID":65737,"ELEMENT_SET_NO":999,"REV_AT_EPOCH":2571,"BSTAR":0.0018684374,"MEAN_MOTION_DOT":0.00055377,"MEAN_MOTION_DDOT":0},{"OBJECT_NAME":"STARLINK-35108","OBJECT_ID":"2025-216E","EPOCH":"2026-03-04T05:05:53.903616","MEAN_MOTION":15.30230779,"ECCENTRICITY":3.972e-5,"INCLINATION":53.1626,"RA_OF_ASC_NODE":358.433,"ARG_OF_PERICENTER":200.0354,"MEAN_ANOMALY":160.0631,"EPHEMERIS_TYPE":0,"CLASSIFICATION_TYPE":"U","NORAD_CAT_ID":65738,"ELEMENT_SET_NO":999,"REV_AT_EPOCH":2575,"BSTAR":0.0015472708,"MEAN_MOTION_DOT":0.00045793,"MEAN_MOTION_DDOT":0},{"OBJECT_NAME":"STARLINK-35106","OBJECT_ID":"2025-216F","EPOCH":"2026-03-04T00:22:12.895392","MEAN_MOTION":15.30237704,"ECCENTRICITY":0.00013121,"INCLINATION":53.1629,"RA_OF_ASC_NODE":359.3283,"ARG_OF_PERICENTER":118.0217,"MEAN_ANOMALY":242.0917,"EPHEMERIS_TYPE":0,"CLASSIFICATION_TYPE":"U","NORAD_CAT_ID":65739,"ELEMENT_SET_NO":999,"REV_AT_EPOCH":2564,"BSTAR":0.0011420102,"MEAN_MOTION_DOT":0.00033657,"MEAN_MOTION_DDOT":0},{"OBJECT_NAME":"STARLINK-35130","OBJECT_ID":"2025-216G","EPOCH":"2026-03-04T04:37:01.768512","MEAN_MOTION":15.30217622,"ECCENTRICITY":0.00011338,"INCLINATION":53.1608,"RA_OF_ASC_NODE":358.3057,"ARG_OF_PERICENTER":86.4914,"MEAN_ANOMALY":273.6216,"EPHEMERIS_TYPE":0,"CLASSIFICATION_TYPE":"U","NORAD_CAT_ID":65740,"ELEMENT_SET_NO":999,"REV_AT_EPOCH":2575,"BSTAR":0.0014344599,"MEAN_MOTION_DOT":0.00042391,"MEAN_MOTION_DDOT":0},{"OBJECT_NAME":"STARLINK-35284","OBJECT_ID":"2025-216H","EPOCH":"2026-03-04T00:32:51.704160","MEAN_MOTION":15.30197374,"ECCENTRICITY":0.00012632,"INCLINATION":53.1619,"RA_OF_ASC_NODE":359.3825,"ARG_OF_PERICENTER":58.7155,"MEAN_ANOMALY":301.3969,"EPHEMERIS_TYPE":0,"CLASSIFICATION_TYPE":"U","NORAD_CAT_ID":65741,"ELEMENT_SET_NO":999,"REV_AT_EPOCH":2567,"BSTAR":0.0022352876,"MEAN_MOTION_DOT":0.00066432,"MEAN_MOTION_DDOT":0},{"OBJECT_NAME":"STARLINK-35316","OBJECT_ID":"2025-216J","EPOCH":"2026-03-04T03:21:12.986496","MEAN_MOTION":15.30210763,"ECCENTRICITY":0.00011735,"INCLINATION":53.1623,"RA_OF_ASC_NODE":358.6869,"ARG_OF_PERICENTER":84.4731,"MEAN_ANOMALY":275.6404,"EPHEMERIS_TYPE":0,"CLASSIFICATION_TYPE":"U","NORAD_CAT_ID":65742,"ELEMENT_SET_NO":999,"REV_AT_EPOCH":2461,"BSTAR":0.0014357269,"MEAN_MOTION_DOT":0.0004242,"MEAN_MOTION_DDOT":0},{"OBJECT_NAME":"STARLINK-35319","OBJECT_ID":"2025-216K","EPOCH":"2026-03-04T02:34:06.352608","MEAN_MOTION":15.30226728,"ECCENTRICITY":9.676e-5,"INCLINATION":53.1609,"RA_OF_ASC_NODE":358.481,"ARG_OF_PERICENTER":95.344,"MEAN_ANOMALY":264.7672,"EPHEMERIS_TYPE":0,"CLASSIFICATION_TYPE":"U","NORAD_CAT_ID":65743,"ELEMENT_SET_NO":999,"REV_AT_EPOCH":2574,"BSTAR":0.0012071118,"MEAN_MOTION_DOT":0.00035593,"MEAN_MOTION_DDOT":0},{"OBJECT_NAME":"STARLINK-35173","OBJECT_ID":"2025-216L","EPOCH":"2026-03-04T06:01:57.507456","MEAN_MOTION":15.30189825,"ECCENTRICITY":0.00011962,"INCLINATION":53.1611,"RA_OF_ASC_NODE":357.9639,"ARG_OF_PERICENTER":55.7277,"MEAN_ANOMALY":304.3837,"EPHEMERIS_TYPE":0,"CLASSIFICATION_TYPE":"U","NORAD_CAT_ID":65744,"ELEMENT_SET_NO":999,"REV_AT_EPOCH":2576,"BSTAR":0.0011840363,"MEAN_MOTION_DOT":0.00034862,"MEAN_MOTION_DDOT":0}]
